GLOBALSTAR M068         
1 32266U 07048D   24322.90797330 -.00000039  00000+0  36108-3 0  9992
2 32266  51.9879 226.2991 0001776  47.6423  45.2809 12.62808413790861
GLOBALSTAR M079         
1 37188U 10054A   24322.69681869 -.00000103  00000+0  24577-5 0  9997
2 37188  52.0053  63.5958 0000848 134.4611  18.4053 12.62267182649748
GLOBALSTAR M074         
1 37189U 10054B   24322.87851811 -.00000105  00000+0 -74711-5 0  9992
2 37189  52.0027  62.3946 0000490 113.7701  27.0251 12.62258984650374
GLOBALSTAR M076         
1 37190U 10054C   24322.82812934 -.00000108  00000+0 -26325-4 0  9992
2 37190  52.0042  62.7042 0000545 146.2049   2.8642 12.62273533650081
GLOBALSTAR M077         
1 37191U 10054D   24322.89953494 -.00000075  00000+0  15854-3 0  9993
2 37191  52.0098  19.2838 0000401 116.2772  57.6717 12.62267094650462
GLOBALSTAR M075         
1 37192U 10054E   24322.65263010 -.00000116  00000+0 -66859-4 0  9995
2 37192  51.9934 105.6111 0000803 102.9869 269.7725 12.62269066649137
GLOBALSTAR M073         
1 37193U 10054F   24322.52220076 -.00000085  00000+0  10410-3 0  9992
2 37193  52.0085  19.6669 0000383 137.6275   2.0530 12.62272572651106
GLOBALSTAR M083         
1 37739U 11033A   24322.77990337 -.00000097  00000+0  36611-4 0  9992
2 37739  51.9873 327.9041 0000459  95.9197  75.4683 12.62267936620159
GLOBALSTAR M088         
1 37740U 11033B   24322.51570269 -.00000070  00000+0  18583-3 0  9992
2 37740  51.9728 234.3768 0000873  73.3152  97.6716 12.62265101615663
GLOBALSTAR M091         
1 37741U 11033C   24322.83565323 -.00000066  00000+0  21185-3 0  9990
2 37741  51.9983 196.5820 0001217  89.2570  34.8943 12.62270759616490
GLOBALSTAR M085         
1 37742U 11033D   24322.79770478 -.00000099  00000+0  26853-4 0  9999
2 37742  51.9840 147.9203 0001251  99.7405 273.1268 12.62269467617009
GLOBALSTAR M081         
1 37743U 11033E   24321.90201043 -.00000062  00000+0  23524-3 0  9990
2 37743  51.9927 153.3041 0001107 110.2082  30.3088 12.62264039617033
GLOBALSTAR M089         
1 37744U 11033F   24322.81601201 -.00000113  00000+0 -52623-4 0  9993
2 37744  51.9916 104.7880 0000589 111.6661  43.4160 12.62272472617995
GLOBALSTAR M084         
1 38040U 11080A   24322.75343597 -.00000080  00000+0  13101-3 0  9998
2 38040  52.0022 332.1558 0000260  14.9204 156.0590 12.62270645595968
GLOBALSTAR M080         
1 38041U 11080B   24322.80638587 -.00000078  00000+0  14365-3 0  9991
2 38041  52.0076 333.5281 0000182 294.8576 236.2633 12.62268633596098
GLOBALSTAR M082         
1 38042U 11080C   24322.50018924 -.00000092  00000+0  66212-4 0  9991
2 38042  52.0079 289.8833 0000985  71.5302  87.8004 12.62269621596760
GLOBALSTAR M092         
1 38043U 11080D   24322.87247337 -.00000088  00000+0  88409-4 0  9991
2 38043  52.0110  19.1144 0000390  96.0589  75.9442 12.62269460595264
GLOBALSTAR M090         
1 38044U 11080E   24322.89737690 -.00000082  00000+0  11994-3 0  9998
2 38044  51.9887 282.7537 0000744  71.8255 333.7579 12.62270786596936
GLOBALSTAR M086         
1 38045U 11080F   24322.63449248 -.00000084  00000+0  11275-3 0  9994
2 38045  51.9900 284.0885 0000487 183.0750 347.8684 12.62270245596847
GLOBALSTAR M097         
1 39072U 13005A   24322.94044219 -.00000068  00000+0  20136-3 0  9995
2 39072  52.0032 197.4918 0000981  92.3038 267.7941 12.62267368544133
GLOBALSTAR M093         
1 39073U 13005B   24322.91366087 -.00000061  00000+0  23664-3 0  9995
2 39073  51.9794 191.2118 0001118  93.5712 266.5282 12.62276431544086
GLOBALSTAR M094         
1 39074U 13005C   24322.83457633 -.00000118  00000+0 -78341-4 0  9992
2 39074  51.9944 105.6207 0001108 119.4730 240.6248 12.62265448545687
GLOBALSTAR M096         
1 39075U 13005D   24322.84775413 -.00000095  00000+0  48240-4 0  9991
2 39075  52.0046 153.9325 0001266 102.7594 257.3415 12.62264884544603
GLOBALSTAR M078         
1 39076U 13005E   24322.90006624 -.00000040  00000+0  35581-3 0  9993
2 39076  51.9868 238.5673 0001717  72.1659 287.9395 12.62268101543233
GLOBALSTAR M095         
1 39077U 13005F   24322.84775383 -.00000062  00000+0  23580-3 0  9992
2 39077  51.9796 236.0314 0001343  83.4798 276.6221 12.62268180543086
GLOBALSTAR M087         
1 52888U 22064A   24322.54291395 -.00000073  00000+0  11189-3 0  9999
2 52888  51.9785  33.8635 0034988 344.4231  15.5588 13.30669868118045
